{
  "location": [
    41.39491,
    2.17557
  ],
  "title": "Barra da Tijuca, Rio de Janeiro, Brazil",
  "description": "boundary defined by geography",
  "radius": 500,
  "layers": {
    "perimeter": {},
    "streets": {
      "width": {
        "motorway": 12,
        "trunk": 12,
        "primary": 11,
        "secondary": 10,
        "tertiary": 9,
        "residential": 8
      }
    },
    "park": {
      "tags": {
        "leisure": "park",
        "landuse": "golf_course",
        "landuse": "meadow",
        "leisure": "nature_reserve",
        "boundary": "protected_area",
        "place": "square",
        "natural": "grassland",
        "landuse": "military",
        "amenity": "hospital"
      }
    },
    "grass": {
      "tags": {
        "landuse": "grass",
        "natural": "wood"
      }
    },
    "wetland": {
      "tags": {
        "natural": "wetland",
        "natural": "scrub"
      }
    },
    "beach": {
      "tags": {
        "natural": "beach"
      }
    },
    "water": {
      "tags": {
        "natural": "water"
      }
    },
    "pedestrian": {
      "tags": {
        "area:highway": "pedestrian"
      }
    },
    "building": {
      "tags": {
        "building": true
      }
    }
  },
  "drawing_kwargs": {
    "perimeter": {
      "ec": "#0F110C",
      "fill": false,
      "lw": 0
    },
    "park": {
      "fc": "#AAD897",
      "ec": "#8bc49e",
      "lw": 0,
      "zorder": 1,
      "hatch": "ooo..."
    },
    "grass": {
      "fc": "#72C07A",
      "ec": "#64a38d",
      "lw": 0,
      "zorder": 1,
      "hatch": "ooo..."
    },
    "wetland": {
      "fc": "#D2D68D",
      "ec": "#AEB441",
      "lw": 0,
      "zorder": 3,
      "hatch": "ooo..."
    },
    "water": {
      "fc": "#6CCFF6",
      "ec": "#59adcf",
      "lw": 0,
      "zorder": 2,
      "hatch": "ooo..."
    },
    "beach": {
      "fc": "#F2E3BC",
      "ec": "#EBD499",
      "lw": 0,
      "zorder": 2,
      "hatch": "ooo..."
    },
    "pedestrian": {
      "fc": "#7BC950",
      "ec": "#638475",
      "lw": 0,
      "zorder": 2,
      "hatch": "ooo..."
    },
    "streets": {
      "fc": "#898989",
      "ec": "#706f6f",
      "zorder": 3,
      "lw": 0,
      "hatch": "ooo..."
    },
    "building": {
      "fc": "#E7A89C",
      "ec": "#E7A89C",
      "lw": 0,
      "zorder": 0
    }
  },
  "osm_credit": {
    "x": -0.06,
    "y": -0.05,
    "color": "#706f6f"
  }
}